[{"OBJECT_NAME":"STARLINK-2430","OBJECT_ID":"2021-027J","EPOCH":"2026-03-10T00:00:02.999808","MEAN_MOTION":15.1045293,"ECCENTRICITY":0.00018604,"INCLINATION":53.0671,"RA_OF_ASC_NODE":150.2034,"ARG_OF_PERICENTER":56.1684,"MEAN_ANOMALY":30.6201,"EPHEMERIS_TYPE":0,"CLASSIFICATION_TYPE":"U","NORAD_CAT_ID":48100,"ELEMENT_SET_NO":999,"REV_AT_EPOCH":580,"BSTAR":0.0050421315,"MEAN_MOTION_DOT":0.00084603,"MEAN_MOTION_DDOT":0},{"OBJECT_NAME":"ELECTRON KICK STAGE R\/B","OBJECT_ID":"2023-035A","EPOCH":"2026-03-09T00:22:03.988416","MEAN_MOTION":15.09409521,"ECCENTRICITY":0.00017263,"INCLINATION":44.1756,"RA_OF_ASC_NODE":311.3301,"ARG_OF_PERICENTER":9.8979,"MEAN_ANOMALY":350.1918,"EPHEMERIS_TYPE":0,"CLASSIFICATION_TYPE":"U","NORAD_CAT_ID":55908,"ELEMENT_SET_NO":999,"REV_AT_EPOCH":16322,"BSTAR":0.00066616987,"MEAN_MOTION_DOT":0.00010608,"MEAN_MOTION_DDOT":0}]
